[{"OBJECT_NAME":"CHUTIAN-2 B","OBJECT_ID":"2025-256B","EPOCH":"2026-03-09T20:41:11.762016","MEAN_MOTION":14.50086658,"ECCENTRICITY":0.00126455,"INCLINATION":98.2627,"RA_OF_ASC_NODE":137.0927,"ARG_OF_PERICENTER":279.5668,"MEAN_ANOMALY":80.4098,"EPHEMERIS_TYPE":0,"CLASSIFICATION_TYPE":"U","NORAD_CAT_ID":66410,"ELEMENT_SET_NO":999,"REV_AT_EPOCH":1750,"BSTAR":0.00019761492,"MEAN_MOTION_DOT":7.23e-6,"MEAN_MOTION_DDOT":0},{"OBJECT_NAME":"COSMOS 374 DEB","OBJECT_ID":"1970-089CW","EPOCH":"2026-03-09T03:15:05.416704","MEAN_MOTION":14.81622526,"ECCENTRICITY":0.02351408,"INCLINATION":62.872,"RA_OF_ASC_NODE":339.5893,"ARG_OF_PERICENTER":12.2958,"MEAN_ANOMALY":348.3731,"EPHEMERIS_TYPE":0,"CLASSIFICATION_TYPE":"U","NORAD_CAT_ID":14122,"ELEMENT_SET_NO":999,"REV_AT_EPOCH":22578,"BSTAR":0.0042555676,"MEAN_MOTION_DOT":0.00054686,"MEAN_MOTION_DDOT":0}]
